BEIDOU-2 M4             
1 38251U 12018B   26159.52964141 -.00000056  00000+0  00000+0 0  9996
2 38251  55.6659 304.3818 0011129 277.2217  82.6429  1.86229806 95788
ARIRANG-3 (KOMPSAT-3)   
1 38338U 12025B   26160.16317321  .00000379  00000+0  84423-4 0  9997
2 38338  98.1173 117.7618 0006341 129.9243 230.2517 14.62199000750173
METOP-B                 
1 38771U 12049A   26160.16500853  .00000075  00000+0  54073-4 0  9999
2 38771  98.6507 211.8240 0002699  38.3543 321.7826 14.21430470712121
SJ-9A                   
1 38860U 12056A   26160.14859179  .00001413  00000+0  16920-3 0  9997
2 38860  97.6704 132.3912 0024007 284.9536  74.9021 14.85460514698397
COSMOS 2484 (RODNIK-S 6)
1 39059U 13001C   26160.17721499  .00000001  00000+0 -64323-4 0  9999
2 39059  82.5017 226.8721 0027181  53.6643 306.6940 12.42938921607568
SARAL                   
1 39086U 13009A   26160.15004007  .00000077  00000+0  44153-4 0  9995
2 39086  98.5558 346.8194 0001154 348.8395  11.2763 14.32853922694451
STRAND-1                
1 39090U 13009E   26159.77100359  .00000307  00000+0  11756-3 0  9991
2 39090  98.3921 340.2126 0007427 254.1198 105.9170 14.37158481695851
BRITE-AUSTRIA           
1 39091U 13009F   26160.05885664  .00000151  00000+0  66011-4 0  9996
2 39091  98.3993 339.6960 0008962 263.9907  96.0258 14.36538801695887
GAOFEN-1                
1 39150U 13018A   26160.26976197 -.00000028  00000+0  33697-5 0  9996
2 39150  97.9100 232.4987 0015806 293.5980  66.3570 14.76527775707076
NEE-01 PEGASO           
1 39151U 13018B   26159.35571900  .00003217  00000+0  31012-3 0  9997
2 39151  98.1214 303.2151 0012466 186.8479 173.2571 14.93619595709388
PROBA-V                 
1 39159U 13021A   26160.17697286  .00000069  00000+0  48089-4 0  9992
2 39159  98.3581 139.1793 0004782 142.6911 217.4601 14.23595264679971
ARIRANG-5 (KOMPSAT-5)   
1 39227U 13042A   26159.98539375  .00001848  00000+0  13611-3 0  9990
2 39227  97.6218 346.8017 0004248 139.4546 220.6997 15.04559791702625
GONETS-M 5              
1 39249U 13048A   26160.14572569  .00000010  00000+0 -97106-6 0  9997
2 39249  82.4836 348.3968 0015786 228.9372 131.0344 12.42891462577881
GONETS-M 7              
1 39251U 13048C   26160.18932557  .00000016  00000+0  42559-4 0  9996
2 39251  82.4904 351.2878 0016576 230.2851 129.6768 12.42914348577847
FENGYUN 3C              
1 39260U 13052A   26160.19905154  .00000079  00000+0  61426-4 0  9998
2 39260  98.4975 134.4409 0015617  49.4224 310.8308 14.15753188657435
CASSIOPE                
1 39265U 13055A   26160.09064813  .00040702 -59651-6  44862-3 0  9998
2 39265  80.9147  76.5466 0295414  89.5868 273.9205 15.24449678666432
APRIZESAT 7             
1 39416U 13066A   26160.10367328  .00000967  00000+0  10116-3 0  9997
2 39416  97.7704 113.4398 0034474 236.8765 122.9144 14.91547053680025
ZACUBE-1 (TSHEPISOSAT)  
1 39417U 13066B   26160.14189494  .00002997  00000+0  23503-3 0  9997
2 39417  97.8092 122.4351 0040054 275.9917  83.6743 15.01137906679525
APRIZESAT 8             
1 39425U 13066K   26159.80102691  .00001074  00000+0  12216-3 0  9995
2 39425  97.8218 107.3862 0044840 314.9851  44.7734 14.87636587678429
TRITON-1                
1 39427U 13066M   26160.19179188  .00002754  00000+0  33386-3 0  9993
2 39427  97.8247  70.1806 0088290 260.4185  98.7044 14.81681908672901
