OBJECT_NAME,OBJECT_ID,EPOCH,MEAN_MOTION,ECCENTRICITY,INCLINATION,RA_OF_ASC_NODE,ARG_OF_PERICENTER,MEAN_ANOMALY,EPHEMERIS_TYPE,CLASSIFICATION_TYPE,NORAD_CAT_ID,ELEMENT_SET_NO,REV_AT_EPOCH,BSTAR,MEAN_MOTION_DOT,MEAN_MOTION_DDOT
BEIDOU-2 M4,2012-018B,2026-06-08T12:42:41.017824,1.86229806,.0011129,55.6659,304.3818,277.2217,82.6429,0,U,38251,999,9578,0,-.56E-6,0
ARIRANG-3 (KOMPSAT-3),2012-025B,2026-06-09T03:54:58.165344,14.62199000,.0006341,98.1173,117.7618,129.9243,230.2517,0,U,38338,999,75017,.84423E-4,.379E-5,0
METOP-B,2012-049A,2026-06-09T03:57:36.736992,14.21430470,.0002699,98.6507,211.8240,38.3543,321.7826,0,U,38771,999,71212,.54073E-4,.75E-6,0
SJ-9A,2012-056A,2026-06-09T03:33:58.330656,14.85460514,.0024007,97.6704,132.3912,284.9536,74.9021,0,U,38860,999,69839,.1692E-3,.1413E-4,0
COSMOS 2484 (RODNIK-S 6),2013-001C,2026-06-09T04:15:11.375136,12.42938921,.0027181,82.5017,226.8721,53.6643,306.6940,0,U,39059,999,60756,-.64323E-4,.1E-7,0
SARAL,2013-009A,2026-06-09T03:36:03.462048,14.32853922,.0001154,98.5558,346.8194,348.8395,11.2763,0,U,39086,999,69445,.44153E-4,.77E-6,0
STRAND-1,2013-009E,2026-06-08T18:30:14.710176,14.37158481,.0007427,98.3921,340.2126,254.1198,105.9170,0,U,39090,999,69585,.11756E-3,.307E-5,0
BRITE-AUSTRIA,2013-009F,2026-06-09T01:24:45.213696,14.36538801,.0008962,98.3993,339.6960,263.9907,96.0258,0,U,39091,999,69588,.66011E-4,.151E-5,0
GAOFEN-1,2013-018A,2026-06-09T06:28:27.434208,14.76527775,.0015806,97.9100,232.4987,293.5980,66.3570,0,U,39150,999,70707,.33697E-5,-.28E-6,0
NEE-01 PEGASO,2013-018B,2026-06-08T08:32:14.121600,14.93619595,.00124663,98.1214,303.2151,186.8479,173.2571,0,U,39151,999,70938,.31012323E-3,.3217E-4,0
PROBA-V,2013-021A,2026-06-09T04:14:50.455104,14.23595264,.0004782,98.3581,139.1793,142.6911,217.4601,0,U,39159,999,67997,.48089E-4,.69E-6,0
ARIRANG-5 (KOMPSAT-5),2013-042A,2026-06-08T23:38:58.020000,15.04559791,.0004248,97.6218,346.8017,139.4546,220.6997,0,U,39227,999,70262,.13611E-3,.1848E-4,0
GONETS-M 5,2013-048A,2026-06-09T03:29:50.699616,12.42891462,.0015786,82.4836,348.3968,228.9372,131.0344,0,U,39249,999,57788,-.97106E-6,.1E-6,0
GONETS-M 7,2013-048C,2026-06-09T04:32:37.729248,12.42914348,.0016576,82.4904,351.2878,230.2851,129.6768,0,U,39251,999,57784,.42559E-4,.16E-6,0
FENGYUN 3C,2013-052A,2026-06-09T04:46:38.053056,14.15753188,.0015617,98.4975,134.4409,49.4224,310.8308,0,U,39260,999,65743,.61426E-4,.79E-6,0
CASSIOPE,2013-055A,2026-06-09T02:10:31.998432,15.24449678,.0295414,80.9147,76.5466,89.5868,273.9205,0,U,39265,999,66643,.44862E-3,.40702E-3,-.59651E-6
APRIZESAT 7,2013-066A,2026-06-09T02:29:17.371392,14.91547053,.0034474,97.7704,113.4398,236.8765,122.9144,0,U,39416,999,68002,.10116E-3,.967E-5,0
ZACUBE-1 (TSHEPISOSAT),2013-066B,2026-06-09T03:24:19.722816,15.01137906,.0040054,97.8092,122.4351,275.9917,83.6743,0,U,39417,999,67952,.23503E-3,.2997E-4,0
APRIZESAT 8,2013-066K,2026-06-08T19:13:28.725024,14.87636587,.004484,97.8218,107.3862,314.9851,44.7734,0,U,39425,999,67842,.12216E-3,.1074E-4,0
TRITON-1,2013-066M,2026-06-09T04:36:10.818432,14.81681908,.008829,97.8247,70.1806,260.4185,98.7044,0,U,39427,999,67290,.33386E-3,.2754E-4,0
